IRIDIUM 106             
1 41917U 17003A   23319.49951557  .00000122  00000+0  36407-4 0  9994
2 41917  86.3941 123.3532 0002238  95.3048 264.8403 14.34217288357808
IRIDIUM 103             
1 41918U 17003B   23319.55660449  .00000118  00000+0  35082-4 0  9992
2 41918  86.3941 123.2318 0001824  99.4921 260.6481 14.34216797357832
IRIDIUM 109             
1 41919U 17003C   23319.49317599  .00000118  00000+0  34902-4 0  9991
2 41919  86.3942 123.3022 0001872  85.9636 274.1773 14.34219801357791
IRIDIUM 102             
1 41920U 17003D   23319.53124133  .00000120  00000+0  35741-4 0  9993
2 41920  86.3941 123.2301 0002029  85.4784 274.6644 14.34218617357881
IRIDIUM 105             
1 41921U 17003E   23319.29256538  .00000450  00000+0  15353-3 0  9994
2 41921  86.3949  91.7359 0002019  95.4362 264.7065 14.34231077359709
IRIDIUM 104             
1 41922U 17003F   23319.54391392  .00000115  00000+0  34124-4 0  9997
2 41922  86.3943 123.2530 0001810  92.8358 267.3045 14.34218097357870
IRIDIUM 114             
1 41923U 17003G   23319.55024918  .00000103  00000+0  29857-4 0  9990
2 41923  86.3942 123.2370 0002376  92.9907 267.1561 14.34215879357855
IRIDIUM 108             
1 41924U 17003H   23319.43901199  .00000023  00000+0  12036-5 0  9996
2 41924  86.3945  91.6133 0002192  99.2633 260.8811 14.34213765359690
